start=new Date('2022-03-22T00:00:00.000Z').valueOf();
sats=[{"ARG_OF_PERICENTER":"52.3656","CENTER_NAME":"EARTH","TLE_LINE1":"1 47837U 21018BC  22080.87416732  .00000695  00000-0  65533-4 0  9997","PERIAPSIS":"546.021","APOAPSIS":"548.398","RA_OF_ASC_NODE":"255.6150","MEAN_MOTION":"15.06401213","EPOCH":"2022-03-21T20:58:48.056448","SEMIMAJOR_AXIS":"6925.345","COUNTRY_CODE":"US","RCS_SIZE":"LARGE","INCLINATION":"53.0536","REF_FRAME":"TEME","MEAN_ELEMENT_THEORY":"SGP4","REV_AT_EPOCH":"5851","ELEMENT_SET_NO":"999","OBJECT_ID":"2021-018BC","LAUNCH_DATE":"2021-03-11","EPHEMERIS_TYPE":"0","SITE":"AFETR","GP_ID":"199348193","PERIOD":"95.592","MEAN_ANOMALY":"307.7488","MEAN_MOTION_DDOT":"0.0000000000000","FILE":"3368836","TLE_LINE2":"2 47837  53.0536 255.6150 0001716  52.3656 307.7488 15.06401213 58518","NORAD_CAT_ID":"47837","ECCENTRICITY":"0.00017160","MEAN_MOTION_DOT":"0.00000695","TIME_SYSTEM":"UTC","CLASSIFICATION_TYPE":"U","BSTAR":"0.00006553300000","DECAY_DATE":null,"OBJECT_TYPE":"PAYLOAD","OBJECT_NAME":"STARLINK-2427"},{"PERIOD":"95.592","GP_ID":"199291857","MEAN_MOTION_DDOT":"0.0000000000000","MEAN_ANOMALY":"289.0086","LAUNCH_DATE":"2021-03-11","OBJECT_ID":"2021-018BD","SITE":"AFETR","EPHEMERIS_TYPE":"0","FILE":"3368487","ECCENTRICITY":"0.00017020","NORAD_CAT_ID":"47838","TIME_SYSTEM":"UTC","MEAN_MOTION_DOT":"0.00000902","TLE_LINE2":"2 47838  53.0547 275.8463 0001702  71.1087 289.0086 15.06401278 57880","OBJECT_NAME":"STARLINK-2429","CLASSIFICATION_TYPE":"U","OBJECT_TYPE":"PAYLOAD","BSTAR":"0.00007944500000","DECAY_DATE":null,"CENTER_NAME":"EARTH","ARG_OF_PERICENTER":"71.1087","TLE_LINE1":"1 47838U 21018BD  22080.82072538  .00000902  00000-0  79445-4 0  9993","APOAPSIS":"548.388","PERIAPSIS":"546.031","EPOCH":"2022-03-21T19:41:50.672832","COUNTRY_CODE":"US","RCS_SIZE":"LARGE","SEMIMAJOR_AXIS":"6925.345","MEAN_MOTION":"15.06401278","RA_OF_ASC_NODE":"275.8463","MEAN_ELEMENT_THEORY":"SGP4","REF_FRAME":"TEME","REV_AT_EPOCH":"5788","ELEMENT_SET_NO":"999","INCLINATION":"53.0547"},{"FILE":"3368836","GP_ID":"199347192","PERIOD":"95.592","MEAN_ANOMALY":"282.3035","MEAN_MOTION_DDOT":"0.0000000000000","OBJECT_ID":"2021-018BE","LAUNCH_DATE":"2021-03-11","EPHEMERIS_TYPE":"0","SITE":"AFETR","OBJECT_NAME":"STARLINK-2431","CLASSIFICATION_TYPE":"U","BSTAR":"0.00010126000000","DECAY_DATE":null,"OBJECT_TYPE":"PAYLOAD","NORAD_CAT_ID":"47839","ECCENTRICITY":"0.00013600","MEAN_MOTION_DOT":"0.00001227","TIME_SYSTEM":"UTC","TLE_LINE2":"2 47839  53.0527 246.3003 0001360  77.8107 282.3035 15.06395834 58632","TLE_LINE1":"1 47839U 21018BE  22080.71659927  .00001227  00000-0  10126-3 0  9996","PERIAPSIS":"546.284","APOAPSIS":"548.168","CENTER_NAME":"EARTH","ARG_OF_PERICENTER":"77.8107","MEAN_ELEMENT_THEORY":"SGP4","REF_FRAME":"TEME","ELEMENT_SET_NO":"999","REV_AT_EPOCH":"5863","INCLINATION":"53.0527","EPOCH":"2022-03-21T17:11:54.176928","SEMIMAJOR_AXIS":"6925.361","COUNTRY_CODE":"US","RCS_SIZE":"LARGE","MEAN_MOTION":"15.06395834","RA_OF_ASC_NODE":"246.3003"},{"PERIAPSIS":"546.104","APOAPSIS":"548.299","TLE_LINE1":"1 47840U 21018BF  22080.85942269  .00001948  00000-0  14960-3 0  9997","ARG_OF_PERICENTER":"61.1552","CENTER_NAME":"EARTH","INCLINATION":"53.0543","REV_AT_EPOCH":"5850","ELEMENT_SET_NO":"999","MEAN_ELEMENT_THEORY":"SGP4","REF_FRAME":"TEME","RA_OF_ASC_NODE":"255.6685","MEAN_MOTION":"15.06403952","SEMIMAJOR_AXIS":"6925.336","COUNTRY_CODE":"US","RCS_SIZE":"LARGE","EPOCH":"2022-03-21T20:37:34.120416","FILE":"3368836","EPHEMERIS_TYPE":"0","SITE":"AFETR","LAUNCH_DATE":"2021-03-11","OBJECT_ID":"2021-018BF","MEAN_ANOMALY":"298.9596","MEAN_MOTION_DDOT":"0.0000000000000","GP_ID":"199347442","PERIOD":"95.592","DECAY_DATE":null,"BSTAR":"0.00014960000000","OBJECT_TYPE":"PAYLOAD","CLASSIFICATION_TYPE":"U","OBJECT_NAME":"STARLINK-2432","TLE_LINE2":"2 47840  53.0543 255.6685 0001585  61.1552 298.9596 15.06403952 58502","MEAN_MOTION_DOT":"0.00001948","TIME_SYSTEM":"UTC","NORAD_CAT_ID":"47840","ECCENTRICITY":"0.00015850"},{"INCLINATION":"53.0545","ELEMENT_SET_NO":"999","REV_AT_EPOCH":"5850","REF_FRAME":"TEME","MEAN_ELEMENT_THEORY":"SGP4","MEAN_MOTION":"15.06400959","RA_OF_ASC_NODE":"255.6832","SEMIMAJOR_AXIS":"6925.346","RCS_SIZE":"LARGE","COUNTRY_CODE":"US","EPOCH":"2022-03-21T20:32:16.170144","PERIAPSIS":"546.129","APOAPSIS":"548.292","TLE_LINE1":"1 47841U 21018BG  22080.85574271 -.00001659  00000-0 -92511-4 0  9992","ARG_OF_PERICENTER":"73.5092","CENTER_NAME":"EARTH","DECAY_DATE":null,"BSTAR":"-0.00009251100000","OBJECT_TYPE":"PAYLOAD","CLASSIFICATION_TYPE":"U","OBJECT_NAME":"STARLINK-2433","TLE_LINE2":"2 47841  53.0545 255.6832 0001562  73.5092 286.6069 15.06400959 58503","MEAN_MOTION_DOT":"-0.00001659","TIME_SYSTEM":"UTC","NORAD_CAT_ID":"47841","ECCENTRICITY":"0.00015620","FILE":"3368836","EPHEMERIS_TYPE":"0","SITE":"AFETR","LAUNCH_DATE":"2021-03-11","OBJECT_ID":"2021-018BG","MEAN_ANOMALY":"286.6069","MEAN_MOTION_DDOT":"0.0000000000000","GP_ID":"199348692","PERIOD":"95.592"},{"INCLINATION":"53.0544","REF_FRAME":"TEME","MEAN_ELEMENT_THEORY":"SGP4","REV_AT_EPOCH":"5813","ELEMENT_SET_NO":"999","MEAN_MOTION":"15.06399957","RA_OF_ASC_NODE":"285.7527","EPOCH":"2022-03-21T20:12:22.037472","SEMIMAJOR_AXIS":"6925.349","RCS_SIZE":"LARGE","COUNTRY_CODE":"US","TLE_LINE1":"1 47842U 21018BH  22080.84192173  .00000993  00000-0  85533-4 0  9993","PERIAPSIS":"546.127","APOAPSIS":"548.300","ARG_OF_PERICENTER":"80.4007","CENTER_NAME":"EARTH","CLASSIFICATION_TYPE":"U","BSTAR":"0.00008553300000","DECAY_DATE":null,"OBJECT_TYPE":"PAYLOAD","OBJECT_NAME":"STARLINK-2434","TLE_LINE2":"2 47842  53.0544 285.7527 0001569  80.4007 279.7159 15.06399957 58135","NORAD_CAT_ID":"47842","ECCENTRICITY":"0.00015690","MEAN_MOTION_DOT":"0.00000993","TIME_SYSTEM":"UTC","FILE":"3368836","OBJECT_ID":"2021-018BH","LAUNCH_DATE":"2021-03-11","EPHEMERIS_TYPE":"0","SITE":"AFETR","GP_ID":"199348444","PERIOD":"95.592","MEAN_ANOMALY":"279.7159","MEAN_MOTION_DDOT":"0.0000000000000"},{"OBJECT_NAME":"STARLINK-2435","CLASSIFICATION_TYPE":"U","OBJECT_TYPE":"PAYLOAD","BSTAR":"0.00002526700000","DECAY_DATE":null,"ECCENTRICITY":"0.00018170","NORAD_CAT_ID":"47843","TIME_SYSTEM":"UTC","MEAN_MOTION_DOT":"0.00000095","TLE_LINE2":"2 47843  53.0532 280.8834 0001817  53.3521 306.7635 15.06406631 58167","FILE":"3368836","PERIOD":"95.592","GP_ID":"199347691","MEAN_MOTION_DDOT":"0.0000000000000","MEAN_ANOMALY":"306.7635","LAUNCH_DATE":"2021-03-11","OBJECT_ID":"2021-018BJ","SITE":"AFETR","EPHEMERIS_TYPE":"0","REF_FRAME":"TEME","MEAN_ELEMENT_THEORY":"SGP4","REV_AT_EPOCH":"5816","ELEMENT_SET_NO":"999","INCLINATION":"53.0532","EPOCH":"2022-03-21T19:33:13.158432","COUNTRY_CODE":"US","RCS_SIZE":"LARGE","SEMIMAJOR_AXIS":"6925.328","RA_OF_ASC_NODE":"280.8834","MEAN_MOTION":"15.06406631","TLE_LINE1":"1 47843U 21018BJ  22080.81473563  .00000095  00000-0  25267-4 0  9997","APOAPSIS":"548.452","PERIAPSIS":"545.935","CENTER_NAME":"EARTH","ARG_OF_PERICENTER":"53.3521"},{"OBJECT_NAME":"STARLINK-2446","CLASSIFICATION_TYPE":"U","DECAY_DATE":null,"BSTAR":"-0.00005216100000","OBJECT_TYPE":"PAYLOAD","NORAD_CAT_ID":"47844","ECCENTRICITY":"0.00015200","MEAN_MOTION_DOT":"-0.00001059","TIME_SYSTEM":"UTC","TLE_LINE2":"2 47844  53.0537 275.8835 0001520  69.7434 290.3718 15.06408828 58219","FILE":"3368836","GP_ID":"199347941","PERIOD":"95.592","MEAN_ANOMALY":"290.3718","MEAN_MOTION_DDOT":"0.0000000000000","OBJECT_ID":"2021-018BK","LAUNCH_DATE":"2021-03-11","EPHEMERIS_TYPE":"0","SITE":"AFETR","MEAN_ELEMENT_THEORY":"SGP4","REF_FRAME":"TEME","ELEMENT_SET_NO":"999","REV_AT_EPOCH":"5821","INCLINATION":"53.0537","EPOCH":"2022-03-21T19:31:13.833984","SEMIMAJOR_AXIS":"6925.322","COUNTRY_CODE":"US","RCS_SIZE":"LARGE","MEAN_MOTION":"15.06408828","RA_OF_ASC_NODE":"275.8835","TLE_LINE1":"1 47844U 21018BK  22080.81335456 -.00001059  00000-0 -52161-4 0  9992","PERIAPSIS":"546.134","APOAPSIS":"548.239","CENTER_NAME":"EARTH","ARG_OF_PERICENTER":"69.7434"},{"FILE":"3368836","OBJECT_ID":"2021-018BL","LAUNCH_DATE":"2021-03-11","SITE":"AFETR","EPHEMERIS_TYPE":"0","PERIOD":"95.592","GP_ID":"199348194","MEAN_MOTION_DDOT":"0.0000000000000","MEAN_ANOMALY":"300.8293","CLASSIFICATION_TYPE":"U","OBJECT_TYPE":"PAYLOAD","DECAY_DATE":null,"BSTAR":"-0.00003127900000","OBJECT_NAME":"STARLINK-2453","TLE_LINE2":"2 47845  53.0547 275.8037 0001570  59.2850 300.8293 15.06404010 58221","ECCENTRICITY":"0.00015700","NORAD_CAT_ID":"47845","TIME_SYSTEM":"UTC","MEAN_MOTION_DOT":"-0.00000747","TLE_LINE1":"1 47845U 21018BL  22080.83178607 -.00000747  00000-0 -31279-4 0  9998","APOAPSIS":"548.289","PERIAPSIS":"546.114","ARG_OF_PERICENTER":"59.2850","CENTER_NAME":"EARTH","INCLINATION":"53.0547","REF_FRAME":"TEME","MEAN_ELEMENT_THEORY":"SGP4","REV_AT_EPOCH":"5822","ELEMENT_SET_NO":"999","MEAN_MOTION":"15.06404010","RA_OF_ASC_NODE":"275.8037","EPOCH":"2022-03-21T19:57:46.316448","RCS_SIZE":"LARGE","COUNTRY_CODE":"US","SEMIMAJOR_AXIS":"6925.336"},{"INCLINATION":"53.0538","REF_FRAME":"TEME","MEAN_ELEMENT_THEORY":"SGP4","REV_AT_EPOCH":"5828","ELEMENT_SET_NO":"999","MEAN_MOTION":"15.06400863","RA_OF_ASC_NODE":"275.5198","EPOCH":"2022-03-21T21:27:59.980608","SEMIMAJOR_AXIS":"6925.346","RCS_SIZE":"LARGE","COUNTRY_CODE":"US","TLE_LINE1":"1 47846U 21018BM  22080.89444422 -.00001275  00000-0 -66730-4 0  9993","PERIAPSIS":"545.924","APOAPSIS":"548.498","ARG_OF_PERICENTER":"67.4324","CENTER_NAME":"EARTH","CLASSIFICATION_TYPE":"U","BSTAR":"-0.00006673000000","DECAY_DATE":null,"OBJECT_TYPE":"PAYLOAD","OBJECT_NAME":"STARLINK-2456","TLE_LINE2":"2 47846  53.0538 275.5198 0001858  67.4324 292.6861 15.06400863 58280","NORAD_CAT_ID":"47846","ECCENTRICITY":"0.00018580","MEAN_MOTION_DOT":"-0.00001275","TIME_SYSTEM":"UTC","FILE":"3368836","OBJECT_ID":"2021-018BM","LAUNCH_DATE":"2021-03-11","EPHEMERIS_TYPE":"0","SITE":"AFETR","GP_ID":"199348943","PERIOD":"95.592","MEAN_ANOMALY":"292.6861","MEAN_MOTION_DDOT":"0.0000000000000"}];
